      2.10          N: GNSS NAV DATA                        RINEX VERSION / TYPE
fic2rin                                 06/21/2024 00:59:02 PGM / RUN BY / DATE
                                                            END OF HEADER
10 24  6 20 20  0  0.0 -.472730025649D-04 -.852651282912D-11  .000000000000D+00
     .830000000000D+02 -.129031250000D+03  .376658546483D-08  .216062300379D+01
    -.675022602081D-05  .937985291239D-02  .892393290997D-05  .515369405937D+04
     .417600000000D+06 -.154599547386D-06  .269286569808D+01 -.182539224625D-06
     .984721477305D+00  .224000000000D+03 -.237479295248D+01 -.751317009655D-08
    -.103575742917D-10  .100000000000D+01  .231900000000D+04  .000000000000D+00
     .240000000000D+01  .000000000000D+00  .232830643654D-08  .830000000000D+02
     .410400000000D+06  .400000000000D+01
6  24  6 20 20  0  0.0  .207399483770D-03 -.214868123294D-10  .000000000000D+00
     .470000000000D+02 -.464375000000D+02  .424231956678D-08 -.178823625142D+01
    -.240653753281D-05  .293659477029D-02 -.484287738800D-07  .515364127350D+04
     .417600000000D+06 -.121071934700D-06  .165889835765D+01 -.931322574615D-08
     .989439925002D+00  .399437500000D+03 -.694458296758D+00 -.821462788651D-08
    -.514307137242D-10  .100000000000D+01  .231900000000D+04  .000000000000D+00
     .240000000000D+01  .000000000000D+00  .372529029846D-08  .470000000000D+02
     .410400000000D+06  .400000000000D+01
8  24  6 20 20  0  0.0  .239047687501D-03  .177351466846D-10  .000000000000D+00
     .610000000000D+02  .137437500000D+03  .455876131928D-08  .183918779218D+00
     .730343163013D-05  .947468541563D-02  .515207648277D-05  .515365196037D+04
     .417600000000D+06  .171363353729D-06  .562093749827D+00  .104308128357D-06
     .953103417154D+00  .276937500000D+03  .365057430382D+00 -.826963017758D-08
     .275725770799D-09  .100000000000D+01  .231900000000D+04  .000000000000D+00
     .240000000000D+01  .000000000000D+00  .465661287308D-08  .610000000000D+02
     .410400000000D+06  .400000000000D+01
26 24  6 20 20  0  0.0  .133678317070D-03 -.636646291241D-11  .000000000000D+00
     .130000000000D+02  .329062500000D+02  .488341769966D-08  .205006316598D+01
     .169500708580D-05  .890476675704D-02  .991672277451D-05  .515365885925D+04
     .417600000000D+06 -.143423676491D-06 -.530964248724D+00 -.372529029846D-08
     .931094326673D+00  .173625000000D+03  .540156223835D+00 -.804283501636D-08
    -.516450083648D-09  .100000000000D+01  .231900000000D+04  .000000000000D+00
     .240000000000D+01  .000000000000D+00  .651925802231D-08  .130000000000D+02
     .410400000000D+06  .400000000000D+01
15 24  6 20 20  0  0.0  .172332394868D-03  .420641299570D-11  .000000000000D+00
     .140000000000D+02 -.132812500000D+02  .512592780118D-08 -.771386844593D+00
    -.564381480217D-06  .157125861151D-01  .934302806854D-05  .515366714478D+04
     .417600000000D+06 -.169500708580D-06 -.269811818549D+01  .188127160072D-06
     .935851072102D+00  .186281250000D+03  .131866335697D+01 -.835284792964D-08
     .430017911972D-09  .100000000000D+01  .231900000000D+04  .000000000000D+00
     .240000000000D+01  .000000000000D+00 -.102445483208D-07  .140000000000D+02
     .410400000000D+06  .400000000000D+01
13 24  6 20 20  0  0.0  .659288372844D-03  .261479726760D-11  .000000000000D+00
     .360000000000D+02 -.968750000000D+00  .445482841863D-08 -.900580035288D-01
     .614672899246D-07  .817068107426D-02  .784359872341D-05  .515365144348D+04
     .417600000000D+06  .000000000000D+00 -.240338806505D+01  .745058059692D-07
     .971608417996D+00  .230500000000D+03  .927782321103D+00 -.789818613401D-08
     .408945605655D-09  .100000000000D+01  .231900000000D+04  .000000000000D+00
     .240000000000D+01  .000000000000D+00 -.111758708954D-07  .360000000000D+02
     .410400000000D+06  .400000000000D+01
11 24  6 20 20  0  0.0 -.689573120326D-03 -.784439180279D-11  .000000000000D+00
     .540000000000D+02 -.536562500000D+02  .472662545435D-08 -.500976432296D+00
    -.273622572422D-05  .136697804555D-02 -.284984707832D-06  .515372698975D+04
     .417600000000D+06 -.558793544769D-08  .169143903488D+01  .782310962677D-07
     .965994768302D+00  .389093750000D+03 -.260522277335D+01 -.842427947648D-08
    -.667884962947D-10  .100000000000D+01  .231900000000D+04  .000000000000D+00
     .240000000000D+01  .000000000000D+00 -.884756445885D-08  .566000000000D+03
     .410400000000D+06  .400000000000D+01
28 24  6 20 20  0  0.0 -.297536142170D-03 -.165982783074D-10  .000000000000D+00
     .640000000000D+02 -.500000000000D+01  .481948646524D-08  .231206183296D+01
    -.242143869400D-06  .311151961796D-03  .536814332008D-05  .515365652084D+04
     .417600000000D+06  .279396772385D-07 -.152990363081D+01  .335276126862D-07
     .960860145282D+00  .276875000000D+03  .160661154865D+01 -.803712049261D-08
    -.227509476683D-09  .100000000000D+01  .231900000000D+04  .000000000000D+00
     .240000000000D+01  .000000000000D+00 -.931322574615D-08  .640000000000D+02
     .410400000000D+06  .400000000000D+01
22 24  6 20 20  0  0.0 -.298256054521D-04 -.488853402203D-11  .000000000000D+00
     .680000000000D+02  .628125000000D+02  .423874798944D-08  .697621113942D+00
     .319629907608D-05  .142607101006D-01  .109691172838D-04  .515370449829D+04
     .417600000000D+06 -.987201929092D-07 -.360135148457D+00 -.253319740295D-06
     .961306832688D+00  .169093750000D+03 -.113286858281D+01 -.792675875275D-08
    -.436089593453D-09  .100000000000D+01  .231900000000D+04  .000000000000D+00
     .240000000000D+01  .000000000000D+00 -.111758708954D-07  .680000000000D+02
     .410400000000D+06  .400000000000D+01
24 24  6 20 20  0  0.0 -.478968489915D-03 -.238742359215D-11  .000000000000D+00
     .540000000000D+02 -.375000000000D+01  .537665253059D-08 -.166256850751D+01
    -.121071934700D-06  .153879518621D-01  .456720590591D-05  .515369861603D+04
     .417600000000D+06  .348314642906D-06 -.159458715494D+01 -.577419996262D-07
     .933473265537D+00  .274875000000D+03  .983314569970D+00 -.818069790176D-08
    -.132148361653D-09  .100000000000D+01  .231900000000D+04  .000000000000D+00
     .240000000000D+01  .000000000000D+00  .232830643654D-08  .540000000000D+02
     .410400000000D+06  .400000000000D+01
27 24  6 20 20  0  0.0 -.288798473775D-04 -.125055521494D-11  .000000000000D+00
     .420000000000D+02  .128000000000D+03  .442804158856D-08  .244112460012D+00
     .670552253723D-05  .125299722422D-01  .508502125740D-05  .515368511772D+04
     .417600000000D+06 -.130385160446D-07  .588764020613D+00  .242143869400D-06
     .962102847377D+00  .286250000000D+03  .796450540208D+00 -.823320008869D-08
     .237152735506D-09  .100000000000D+01  .231900000000D+04  .000000000000D+00
     .240000000000D+01  .000000000000D+00  .186264514923D-08  .420000000000D+02
     .410400000000D+06  .400000000000D+01
32 24  6 20 20  0  0.0 -.615572091192D-03  .136424205266D-11  .000000000000D+00
     .550000000000D+02 -.309375000000D+01  .454268922124D-08  .902424040601D+00
    -.800937414169D-07  .778356532101D-02  .911019742489D-05  .515368593407D+04
     .417600000000D+06 -.113621354103D-06 -.255491951449D+01  .558793544769D-07
     .962247544604D+00  .208093750000D+03 -.213002924230D+01 -.794211653532D-08
     .402159608705D-09  .100000000000D+01  .231900000000D+04  .000000000000D+00
     .240000000000D+01  .000000000000D+00  .931322574615D-09  .550000000000D+02
     .410400000000D+06  .400000000000D+01
16 24  6 20 20  0  0.0 -.258797779679D-03  .105728759081D-10  .000000000000D+00
     .540000000000D+02  .602812500000D+02  .414945855589D-08  .110140572803D+01
     .324472784996D-05  .138192120939D-01  .104978680611D-04  .515358289528D+04
     .417600000000D+06 -.162050127983D-06 -.363427123753D+00  .335276126862D-07
     .961981909402D+00  .181218750000D+03  .836689389346D+00 -.781818280155D-08
    -.535736601294D-09  .100000000000D+01  .231900000000D+04  .000000000000D+00
     .340000000000D+01  .000000000000D+00 -.102445483208D-07  .540000000000D+02
     .410400000000D+06  .400000000000D+01
30 24  6 20 20  0  0.0 -.371021218598D-03  .625277607469D-11  .000000000000D+00
     .420000000000D+02 -.568750000000D+01  .536450916763D-08 -.282459951959D+01
    -.387430191040D-06  .717382074799D-02  .514090061188D-05  .515361418533D+04
     .417600000000D+06  .149011611938D-07 -.149683181484D+01 -.726431608200D-07
     .934914718219D+00  .265843750000D+03 -.245431236188D+01 -.818462663684D-08
    -.224652214809D-09  .100000000000D+01  .231900000000D+04  .000000000000D+00
     .240000000000D+01  .000000000000D+00  .419095158577D-08  .420000000000D+02
     .410400000000D+06  .400000000000D+01
20 24  6 20 20  0  0.0  .373622402549D-03 -.454747350886D-12  .000000000000D+00
     .710000000000D+02 -.146875000000D+03  .460590614019D-08 -.140150219625D+01
    -.749155879021D-05  .368552573491D-02  .692345201969D-05  .515355176926D+04
     .417600000000D+06  .651925802231D-07  .251455775683D+01  .372529029846D-08
     .954322058636D+00  .243718750000D+03 -.258623818261D+01 -.803247744207D-08
    -.692886004340D-10  .100000000000D+01  .231900000000D+04  .000000000000D+00
     .240000000000D+01  .000000000000D+00 -.838190317154D-08  .710000000000D+02
     .410400000000D+06  .400000000000D+01
17 24  6 20 20  0  0.0  .691532623023D-03 -.602540239925D-11  .000000000000D+00
     .510000000000D+02  .139250000000D+03  .430446501253D-08  .169696634900D+00
     .709295272827D-05  .134088930208D-01  .458024442196D-05  .515375351334D+04
     .417600000000D+06 -.156462192535D-06  .657178557851D+00 -.152736902237D-06
     .968817098618D+00  .292781250000D+03 -.131703677932D+01 -.832856120372D-08
     .318584698903D-09  .100000000000D+01  .231900000000D+04  .000000000000D+00
     .240000000000D+01  .000000000000D+00 -.111758708954D-07  .510000000000D+02
     .410400000000D+06  .400000000000D+01
